[{"OBJECT_NAME":"COSMOS 2251 DEB","OBJECT_ID":"1993-036JM","EPOCH":"2026-04-27T00:25:42.041280","MEAN_MOTION":13.96574428,"ECCENTRICITY":0.02169307,"INCLINATION":74.085,"RA_OF_ASC_NODE":137.9065,"ARG_OF_PERICENTER":170.5963,"MEAN_ANOMALY":217.4067,"EPHEMERIS_TYPE":0,"CLASSIFICATION_TYPE":"U","NORAD_CAT_ID":34050,"ELEMENT_SET_NO":999,"REV_AT_EPOCH":87320,"BSTAR":0.00033497933,"MEAN_MOTION_DOT":5.43e-6,"MEAN_MOTION_DDOT":0},{"OBJECT_NAME":"COSMOS 2251 DEB","OBJECT_ID":"1993-036JQ","EPOCH":"2026-04-27T03:29:48.566400","MEAN_MOTION":13.49323891,"ECCENTRICITY":0.04237404,"INCLINATION":73.846,"RA_OF_ASC_NODE":23.9098,"ARG_OF_PERICENTER":150.1448,"MEAN_ANOMALY":212.4578,"EPHEMERIS_TYPE":0,"CLASSIFICATION_TYPE":"U","NORAD_CAT_ID":34053,"ELEMENT_SET_NO":999,"REV_AT_EPOCH":84510,"BSTAR":0.00045513934,"MEAN_MOTION_DOT":4.8e-6,"MEAN_MOTION_DDOT":0},{"OBJECT_NAME":"COSMOS 2251 DEB","OBJECT_ID":"1993-036JT","EPOCH":"2026-04-27T05:53:54.185856","MEAN_MOTION":14.2151754,"ECCENTRICITY":0.0126154,"INCLINATION":74.0585,"RA_OF_ASC_NODE":193.862,"ARG_OF_PERICENTER":210.2068,"MEAN_ANOMALY":167.3328,"EPHEMERIS_TYPE":0,"CLASSIFICATION_TYPE":"U","NORAD_CAT_ID":34056,"ELEMENT_SET_NO":999,"REV_AT_EPOCH":88336,"BSTAR":0.0013960212,"MEAN_MOTION_DOT":3.289e-5,"MEAN_MOTION_DDOT":0},{"OBJECT_NAME":"COSMOS 2251 DEB","OBJECT_ID":"1993-036JV","EPOCH":"2026-04-27T07:27:23.163264","MEAN_MOTION":13.5624437,"ECCENTRICITY":0.03772604,"INCLINATION":73.9336,"RA_OF_ASC_NODE":318.3346,"ARG_OF_PERICENTER":287.7996,"MEAN_ANOMALY":252.6683,"EPHEMERIS_TYPE":0,"CLASSIFICATION_TYPE":"U","NORAD_CAT_ID":34058,"ELEMENT_SET_NO":999,"REV_AT_EPOCH":84980,"BSTAR":0.00035637154,"MEAN_MOTION_DOT":3.71e-6,"MEAN_MOTION_DDOT":0},{"OBJECT_NAME":"COSMOS 2251 DEB","OBJECT_ID":"1993-036JW","EPOCH":"2026-04-27T05:12:26.048160","MEAN_MOTION":14.53812105,"ECCENTRICITY":0.00171565,"INCLINATION":74.0365,"RA_OF_ASC_NODE":290.4999,"ARG_OF_PERICENTER":335.531,"MEAN_ANOMALY":201.1701,"EPHEMERIS_TYPE":0,"CLASSIFICATION_TYPE":"U","NORAD_CAT_ID":34059,"ELEMENT_SET_NO":999,"REV_AT_EPOCH":90427,"BSTAR":0.00052629809,"MEAN_MOTION_DOT":2.186e-5,"MEAN_MOTION_DDOT":0},{"OBJECT_NAME":"COSMOS 2251 DEB","OBJECT_ID":"1993-036JY","EPOCH":"2026-04-27T04:18:09.686592","MEAN_MOTION":14.40656608,"ECCENTRICITY":0.00193692,"INCLINATION":74.0411,"RA_OF_ASC_NODE":12.9736,"ARG_OF_PERICENTER":61.2903,"MEAN_ANOMALY":93.1282,"EPHEMERIS_TYPE":0,"CLASSIFICATION_TYPE":"U","NORAD_CAT_ID":34061,"ELEMENT_SET_NO":999,"REV_AT_EPOCH":90130,"BSTAR":0.00027572358,"MEAN_MOTION_DOT":8.56e-6,"MEAN_MOTION_DDOT":0},{"OBJECT_NAME":"COSMOS 2251 DEB","OBJECT_ID":"1993-036JZ","EPOCH":"2026-04-27T07:57:54.108864","MEAN_MOTION":14.83262899,"ECCENTRICITY":0.00694417,"INCLINATION":74.0273,"RA_OF_ASC_NODE":230.2788,"ARG_OF_PERICENTER":274.9636,"MEAN_ANOMALY":114.7397,"EPHEMERIS_TYPE":0,"CLASSIFICATION_TYPE":"U","NORAD_CAT_ID":34062,"ELEMENT_SET_NO":999,"REV_AT_EPOCH":90603,"BSTAR":0.0021048835,"MEAN_MOTION_DOT":0.00017974,"MEAN_MOTION_DDOT":0},{"OBJECT_NAME":"COSMOS 2251 DEB","OBJECT_ID":"1993-036KB","EPOCH":"2026-04-27T02:55:43.118112","MEAN_MOTION":14.4283106,"ECCENTRICITY":0.00207546,"INCLINATION":74.0341,"RA_OF_ASC_NODE":19.6038,"ARG_OF_PERICENTER":58.3443,"MEAN_ANOMALY":68.5765,"EPHEMERIS_TYPE":0,"CLASSIFICATION_TYPE":"U","NORAD_CAT_ID":34064,"ELEMENT_SET_NO":999,"REV_AT_EPOCH":90094,"BSTAR":0.00038270222,"MEAN_MOTION_DOT":1.254e-5,"MEAN_MOTION_DDOT":0},{"OBJECT_NAME":"COSMOS 2251 DEB","OBJECT_ID":"1993-036KC","EPOCH":"2026-04-27T03:02:12.256800","MEAN_MOTION":14.38205906,"ECCENTRICITY":0.00155194,"INCLINATION":74.0377,"RA_OF_ASC_NODE":8.7135,"ARG_OF_PERICENTER":78.1799,"MEAN_ANOMALY":72.1504,"EPHEMERIS_TYPE":0,"CLASSIFICATION_TYPE":"U","NORAD_CAT_ID":34065,"ELEMENT_SET_NO":999,"REV_AT_EPOCH":90151,"BSTAR":0.00012217964,"MEAN_MOTION_DOT":3.45e-6,"MEAN_MOTION_DDOT":0},{"OBJECT_NAME":"COSMOS 2251 DEB","OBJECT_ID":"1993-036KH","EPOCH":"2026-04-27T06:27:17.535744","MEAN_MOTION":14.81537405,"ECCENTRICITY":0.00195821,"INCLINATION":73.9994,"RA_OF_ASC_NODE":208.9443,"ARG_OF_PERICENTER":292.2481,"MEAN_ANOMALY":98.3914,"EPHEMERIS_TYPE":0,"CLASSIFICATION_TYPE":"U","NORAD_CAT_ID":34070,"ELEMENT_SET_NO":999,"REV_AT_EPOCH":90615,"BSTAR":0.0017572846,"MEAN_MOTION_DOT":0.0001383,"MEAN_MOTION_DDOT":0},{"OBJECT_NAME":"COSMOS 2251 DEB","OBJECT_ID":"1993-036KK","EPOCH":"2026-04-27T02:30:38.945952","MEAN_MOTION":14.59237547,"ECCENTRICITY":0.0041136,"INCLINATION":74.0565,"RA_OF_ASC_NODE":146.7283,"ARG_OF_PERICENTER":113.1704,"MEAN_ANOMALY":273.8487,"EPHEMERIS_TYPE":0,"CLASSIFICATION_TYPE":"U","NORAD_CAT_ID":34114,"ELEMENT_SET_NO":999,"REV_AT_EPOCH":89774,"BSTAR":0.0015303325,"MEAN_MOTION_DOT":7.286e-5,"MEAN_MOTION_DDOT":0},{"OBJECT_NAME":"COSMOS 2251 DEB","OBJECT_ID":"1993-036KL","EPOCH":"2026-04-26T14:41:36.441312","MEAN_MOTION":14.81877189,"ECCENTRICITY":0.0030591,"INCLINATION":74.0068,"RA_OF_ASC_NODE":335.4779,"ARG_OF_PERICENTER":126.8708,"MEAN_ANOMALY":233.5281,"EPHEMERIS_TYPE":0,"CLASSIFICATION_TYPE":"U","NORAD_CAT_ID":34115,"ELEMENT_SET_NO":999,"REV_AT_EPOCH":91408,"BSTAR":0.0011075,"MEAN_MOTION_DOT":8.81e-5,"MEAN_MOTION_DDOT":0},{"OBJECT_NAME":"COSMOS 2251 DEB","OBJECT_ID":"1993-036KM","EPOCH":"2026-04-27T06:04:12.268992","MEAN_MOTION":14.53922369,"ECCENTRICITY":0.00107978,"INCLINATION":74.0398,"RA_OF_ASC_NODE":286.947,"ARG_OF_PERICENTER":332.4224,"MEAN_ANOMALY":204.939,"EPHEMERIS_TYPE":0,"CLASSIFICATION_TYPE":"U","NORAD_CAT_ID":34116,"ELEMENT_SET_NO":999,"REV_AT_EPOCH":90455,"BSTAR":0.00074342779,"MEAN_MOTION_DOT":3.104e-5,"MEAN_MOTION_DDOT":0},{"OBJECT_NAME":"COSMOS 2251 DEB","OBJECT_ID":"1993-036KN","EPOCH":"2026-04-26T08:04:49.656576","MEAN_MOTION":14.40598669,"ECCENTRICITY":0.00557419,"INCLINATION":74.0372,"RA_OF_ASC_NODE":95.026,"ARG_OF_PERICENTER":142.0078,"MEAN_ANOMALY":218.503,"EPHEMERIS_TYPE":0,"CLASSIFICATION_TYPE":"U","NORAD_CAT_ID":34117,"ELEMENT_SET_NO":999,"REV_AT_EPOCH":90061,"BSTAR":0.00045468521,"MEAN_MOTION_DOT":1.45e-5,"MEAN_MOTION_DDOT":0},{"OBJECT_NAME":"COSMOS 2251 DEB","OBJECT_ID":"1993-036KP","EPOCH":"2026-04-27T01:43:18.670368","MEAN_MOTION":15.00025634,"ECCENTRICITY":0.00585807,"INCLINATION":73.951,"RA_OF_ASC_NODE":334.0887,"ARG_OF_PERICENTER":132.2436,"MEAN_ANOMALY":27.4413,"EPHEMERIS_TYPE":0,"CLASSIFICATION_TYPE":"U","NORAD_CAT_ID":34118,"ELEMENT_SET_NO":999,"REV_AT_EPOCH":91201,"BSTAR":0.0017517926,"MEAN_MOTION_DOT":0.0002264,"MEAN_MOTION_DDOT":0},{"OBJECT_NAME":"COSMOS 2251 DEB","OBJECT_ID":"1993-036KR","EPOCH":"2026-04-27T01:13:45.422688","MEAN_MOTION":13.98824293,"ECCENTRICITY":0.01828547,"INCLINATION":73.9929,"RA_OF_ASC_NODE":341.7986,"ARG_OF_PERICENTER":140.24,"MEAN_ANOMALY":10.0446,"EPHEMERIS_TYPE":0,"CLASSIFICATION_TYPE":"U","NORAD_CAT_ID":34120,"ELEMENT_SET_NO":999,"REV_AT_EPOCH":87872,"BSTAR":0.00029717422,"MEAN_MOTION_DOT":4.71e-6,"MEAN_MOTION_DDOT":0},{"OBJECT_NAME":"COSMOS 2251 DEB","OBJECT_ID":"1993-036KS","EPOCH":"2026-04-27T06:15:06.516576","MEAN_MOTION":13.9246671,"ECCENTRICITY":0.02382992,"INCLINATION":73.9917,"RA_OF_ASC_NODE":224.8187,"ARG_OF_PERICENTER":40.9295,"MEAN_ANOMALY":347.0984,"EPHEMERIS_TYPE":0,"CLASSIFICATION_TYPE":"U","NORAD_CAT_ID":34121,"ELEMENT_SET_NO":999,"REV_AT_EPOCH":87011,"BSTAR":0.00073757657,"MEAN_MOTION_DOT":1.175e-5,"MEAN_MOTION_DDOT":0},{"OBJECT_NAME":"COSMOS 2251 DEB","OBJECT_ID":"1993-036KT","EPOCH":"2026-04-27T06:46:21.062208","MEAN_MOTION":14.66979003,"ECCENTRICITY":0.00804019,"INCLINATION":74.0358,"RA_OF_ASC_NODE":217.4375,"ARG_OF_PERICENTER":79.4024,"MEAN_ANOMALY":304.2325,"EPHEMERIS_TYPE":0,"CLASSIFICATION_TYPE":"U","NORAD_CAT_ID":34122,"ELEMENT_SET_NO":999,"REV_AT_EPOCH":90671,"BSTAR":0.001101712,"MEAN_MOTION_DOT":6.451e-5,"MEAN_MOTION_DDOT":0},{"OBJECT_NAME":"COSMOS 2251 DEB","OBJECT_ID":"1993-036KY","EPOCH":"2026-04-27T05:31:55.316640","MEAN_MOTION":14.32662928,"ECCENTRICITY":0.0113247,"INCLINATION":74.1765,"RA_OF_ASC_NODE":158.7537,"ARG_OF_PERICENTER":318.9669,"MEAN_ANOMALY":107.8301,"EPHEMERIS_TYPE":0,"CLASSIFICATION_TYPE":"U","NORAD_CAT_ID":34127,"ELEMENT_SET_NO":999,"REV_AT_EPOCH":88711,"BSTAR":0.0011822503,"MEAN_MOTION_DOT":3.426e-5,"MEAN_MOTION_DDOT":0},{"OBJECT_NAME":"COSMOS 2251 DEB","OBJECT_ID":"1993-036KZ","EPOCH":"2026-04-27T03:22:45.786144","MEAN_MOTION":15.11680292,"ECCENTRICITY":0.00276509,"INCLINATION":73.997,"RA_OF_ASC_NODE":18.2631,"ARG_OF_PERICENTER":115.8942,"MEAN_ANOMALY":40.6573,"EPHEMERIS_TYPE":0,"CLASSIFICATION_TYPE":"U","NORAD_CAT_ID":34128,"ELEMENT_SET_NO":999,"REV_AT_EPOCH":91205,"BSTAR":0.0028453331,"MEAN_MOTION_DOT":0.00049173,"MEAN_MOTION_DDOT":0},{"OBJECT_NAME":"COSMOS 2251 DEB","OBJECT_ID":"1993-036LA","EPOCH":"2026-04-27T06:36:23.359104","MEAN_MOTION":14.78276809,"ECCENTRICITY":0.00321967,"INCLINATION":74.0326,"RA_OF_ASC_NODE":73.7357,"ARG_OF_PERICENTER":127.8005,"MEAN_ANOMALY":232.6094,"EPHEMERIS_TYPE":0,"CLASSIFICATION_TYPE":"U","NORAD_CAT_ID":34129,"ELEMENT_SET_NO":999,"REV_AT_EPOCH":63299,"BSTAR":0.0014528751,"MEAN_MOTION_DOT":0.00010628,"MEAN_MOTION_DDOT":0},{"OBJECT_NAME":"COSMOS 2251 DEB","OBJECT_ID":"1993-036LH","EPOCH":"2026-04-27T07:57:26.357184","MEAN_MOTION":14.81065827,"ECCENTRICITY":0.0086545,"INCLINATION":74.0173,"RA_OF_ASC_NODE":134.9896,"ARG_OF_PERICENTER":223.165,"MEAN_ANOMALY":148.1542,"EPHEMERIS_TYPE":0,"CLASSIFICATION_TYPE":"U","NORAD_CAT_ID":34136,"ELEMENT_SET_NO":999,"REV_AT_EPOCH":92017,"BSTAR":0.00032920675,"MEAN_MOTION_DOT":2.686e-5,"MEAN_MOTION_DDOT":0},{"OBJECT_NAME":"COSMOS 2251 DEB","OBJECT_ID":"1993-036LL","EPOCH":"2026-04-27T02:38:37.140576","MEAN_MOTION":14.61240424,"ECCENTRICITY":0.00399423,"INCLINATION":74.0323,"RA_OF_ASC_NODE":355.558,"ARG_OF_PERICENTER":39.2299,"MEAN_ANOMALY":111.5114,"EPHEMERIS_TYPE":0,"CLASSIFICATION_TYPE":"U","NORAD_CAT_ID":34139,"ELEMENT_SET_NO":999,"REV_AT_EPOCH":90125,"BSTAR":0.001402147,"MEAN_MOTION_DOT":6.969e-5,"MEAN_MOTION_DDOT":0}]
